RADCAL                  
1 22698U 93041A   13128.52678876  .00000105  00000-0  39517-4 0  5180
2 22698  89.5323 313.1471 0088598 357.3994  35.5144 14.23028159 31389
STRV 1A                 
1 23125U 94034B   13127.79655859  .00015433  00000-0  16428-2 0  1701
2 23125   7.3986  15.3989 6770906  50.9177 351.8659  2.96957005180714
STRV 1B                 
1 23126U 94034C   13127.62000662  .00002724  00000-0  69858-3 0  1750
2 23126   7.3984 298.8889 6685016 204.7571 207.2734  3.05628672183913
REX 2                   
1 23814U 96014A   13128.48192368  .00000124  00000-0  49178-4 0  8500
2 23814  90.1370 296.8423 0021073 348.0938  45.2317 14.24105275891801
COSMOS 2346             
1 24953U 97052A   13128.13678495  .00000015  00000-0 -11592-5 0  7464
2 24953  82.9214 332.1211 0041174  99.6593  48.9935 13.79494440786523
ARGOS                   
1 25634U 99008A   13128.30700992  .00000066  00000-0  52899-4 0  8719
2 25634  98.8101 194.2266 0010156 198.7587 202.7401 14.19070270735582
HELIOS 1B               
1 25977U 99064A   13128.27062164  .00001062  00000-0  15072-3 0  9415
2 25977  98.2092 193.0646 0002776 102.4221 286.7472 14.79138660721860
MTI                     
1 26102U 00014A   13128.47317968  .00007764  00000-0  36893-3 0  9790
2 26102  97.3968 257.3758 0016163 213.9635 188.3102 15.19375632724466
STRV 1C                 
1 26610U 00072C   13127.93021846  .00000060  00000-0  10000-3 0  4884
2 26610   5.9800 166.7011 7351635 281.5403  10.9954  2.03468839 92758
MIDSTAR-1               
1 30773U 07006B   13127.82576503  .00003862  00000-0  14116-3 0  7581
2 30773  46.0703 327.0831 0008603 315.6843 163.7688 15.30036833343701
CFESAT                  
1 30777U 07006F   13128.32189751  .00005496  00000-0  33595-3 0  6234
2 30777  35.4292  97.7318 0004432 285.5840  74.4389 15.09734386339265
NFIRE                   
1 31140U 07014A   13127.67378667  .00015945  00000-0  28582-3 0   932
2 31140  48.2194 199.7311 0007173 287.3220 207.8574 15.49960777342739
SPIRALE A               
1 33751U 09008C   13128.19307726  .00086085  51639-6  19981-2 0  2244
2 33751   2.0379 208.7809 5877774 349.3514   2.3448  4.31528161 42480
SPIRALE B               
1 33752U 09008D   13127.14204488  .00014191  00000-0  20680-2 0   751
2 33752   2.1408   9.8861 7147140  16.6836 358.1140  2.46591591 35892
SAPPHIRE                
1 39088U 13009C   13127.74774493  .00000203  00000-0  88915-4 0   834
2 39088  98.6292 317.9013 0012343  58.9981 301.2427 14.33738246 10194
